*******************************************************************************
JPL/HORIZONS             3585 Goshirakawa (1987 BE)        2023-Sep-04 11:24:24
Rec #:    3585 (+COV) Soln.date: 2023-Aug-23_11:44:35   # obs: 3067 (1952-2023)
 
IAU76/J2000 helio. ecliptic osc. elements (au, days, deg., period=Julian yrs):
 
  EPOCH=  2457454.5 ! 2016-Mar-07.00 (TDB)         Residual RMS= .27106
   EC= .1813739435461532   QR= 2.519700252147191   TP= 2456822.7053631851
   OM= 162.8794245195928   W=  14.2538995101429    IN= 3.018567051737307
   A= 3.077962437528702    MA= 115.3147961314085   ADIST= 3.636224622910213
   PER= 5.40012            N= .182519429           ANGMOM= .029679021
   DAN= 2.53167            DDN= 3.61159            L= 177.1143514
   B= .7429064             MOID= 1.52419996        TP= 2014-Jun-14.2053631851
 
Asteroid physical parameters (km, seconds, rotational period in hours):
   GM= n.a.                RAD= 7.4445             ROTPER= 2.97
   H= 12.87                G= .150                 B-V= n.a.
                           ALBEDO= .061            STYP= n.a.

ASTEROID comments: 
1: soln ref.= JPL#46, OCC=0
2: source=ORB
*******************************************************************************


*******************************************************************************
Ephemeris / API_USER Mon Sep  4 11:24:24 2023 Pasadena, USA      / Horizons
*******************************************************************************
Target body name: 3585 Goshirakawa (1987 BE)      {source: JPL#46}
Center body name: Solar System Barycenter (0)     {source: DE441}
Center-site name: BODY CENTER
*******************************************************************************
Start time      : A.D. 2023-Aug-12 00:00:00.0000 TDB
Stop  time      : A.D. 2023-Aug-13 00:00:00.0000 TDB
Step-size       : 2880 minutes
*******************************************************************************
Center geodetic : 0.0, 0.0, 0.0                   {E-lon(deg),Lat(deg),Alt(km)}
Center cylindric: 0.0, 0.0, 0.0                   {E-lon(deg),Dxy(km),Dz(km)}
Center radii    : (undefined)
Small perturbers: Yes                             {source: SB441-N16}
Output units    : KM-S
Calendar mode   : Mixed Julian/Gregorian
Output type     : GEOMETRIC cartesian states
Output format   : 2 (position and velocity)
Reference frame : Ecliptic of J2000.0
*******************************************************************************
Initial IAU76/J2000 heliocentric ecliptic osculating elements (au, days, deg.):
  EPOCH=  2457454.5 ! 2016-Mar-07.00 (TDB)         Residual RMS= .27106        
   EC= .1813739435461532   QR= 2.519700252147191   TP= 2456822.7053631851      
   OM= 162.8794245195928   W=  14.2538995101429    IN= 3.018567051737307       
  Equivalent ICRF heliocentric cartesian coordinates (au, au/d):
   X= 2.148931324578360E+00  Y=-2.442612245566758E+00  Z=-9.514745934167710E-01
  VX= 7.619399562889477E-03 VY= 4.269601973166475E-03 VZ= 1.474786009928656E-03
Asteroid physical parameters (km, seconds, rotational period in hours):        
   GM= n.a.                RAD= 7.4445             ROTPER= 2.97                
   H= 12.87                G= .150                 B-V= n.a.                   
                           ALBEDO= .061            STYP= n.a.                  
*******************************************************************************
JDTDB
   X     Y     Z
   VX    VY    VZ
*******************************************************************************
$$SOE
2460168.500000000 = A.D. 2023-Aug-12 00:00:00.0000 TDB 
 X = 3.310662451332260E+08 Y = 3.828189337882022E+08 Z =-2.463331627588299E+07
 VX=-1.296121411495048E+01 VY= 8.152984986855833E+00 VZ=-2.088611282257333E-01
$$EOE
*******************************************************************************
 
TIME

  Barycentric Dynamical Time ("TDB" or T_eph) output was requested. This
continuous coordinate time is equivalent to the relativistic proper time
of a clock at rest in a reference frame co-moving with the solar system
barycenter but outside the system's gravity well. It is the independent
variable in the solar system relativistic equations of motion.

  TDB runs at a uniform rate of one SI second per second and is independent
of irregularities in Earth's rotation.
 
CALENDAR SYSTEM

  Mixed calendar mode was active such that calendar dates after AD 1582-Oct-15
(if any) are in the modern Gregorian system. Dates prior to 1582-Oct-5 (if any)
are in the Julian calendar system, which is automatically extended for dates
prior to its adoption on 45-Jan-1 BC.  The Julian calendar is useful for
matching historical dates. The Gregorian calendar more accurately corresponds
to the Earth's orbital motion and seasons. A "Gregorian-only" calendar mode is
available if such physical events are the primary interest.

REFERENCE FRAME AND COORDINATES

  Ecliptic at the standard reference epoch

    Reference epoch: J2000.0
    X-Y plane: adopted Earth orbital plane at the reference epoch
               Note: IAU76 obliquity of 84381.448 arcseconds wrt ICRF X-Y plane
    X-axis   : ICRF
    Z-axis   : perpendicular to the X-Y plane in the directional (+ or -) sense
               of Earth's north pole at the reference epoch.

  Symbol meaning:

    JDTDB    Julian Day Number, Barycentric Dynamical Time
      X      X-component of position vector (km)
      Y      Y-component of position vector (km)
      Z      Z-component of position vector (km)
      VX     X-component of velocity vector (km/sec)                           
      VY     Y-component of velocity vector (km/sec)                           
      VZ     Z-component of velocity vector (km/sec)                           

ABERRATIONS AND CORRECTIONS

 Geometric state vectors have NO corrections or aberrations applied.

Computations by ...

    Solar System Dynamics Group, Horizons On-Line Ephemeris System
    4800 Oak Grove Drive, Jet Propulsion Laboratory
    Pasadena, CA  91109   USA

    General site: https://ssd.jpl.nasa.gov/
    Mailing list: https://ssd.jpl.nasa.gov/email_list.html
    System news : https://ssd.jpl.nasa.gov/horizons/news.html
    User Guide  : https://ssd.jpl.nasa.gov/horizons/manual.html
    Connect     : browser        https://ssd.jpl.nasa.gov/horizons/app.html#/x
                  API            https://ssd-api.jpl.nasa.gov/doc/horizons.html
                  command-line   telnet ssd.jpl.nasa.gov 6775
                  e-mail/batch   https://ssd.jpl.nasa.gov/ftp/ssd/hrzn_batch.txt
                  scripts        https://ssd.jpl.nasa.gov/ftp/ssd/SCRIPTS
    Author      : Jon.D.Giorgini@jpl.nasa.gov
*******************************************************************************
